{
  "type": "FeatureCollection",
  "features": [
    {
      "type": "Feature",
      "properties": {
        "norad_id": 30342,
        "name": "FENGYUN 1C DEB",
        "group": "fengyun-1c-debris",
        "lat": 62.65833507929972,
        "lon": 159.00118442330668,
        "alt_km": 846.7426978127833,
        "timestamp": "2025-12-24T22:42:22.306962+00:00",
        "meta_object_name": "FENGYUN 1C DEB",
        "meta_object_id": "1999-025ABD",
        "meta_epoch": "2025-12-24T02:06:08.625312",
        "meta_mean_motion": 13.80059503,
        "meta_eccentricity": 0.0168267,
        "meta_inclination": 100.1958,
        "meta_ra_of_asc_node": 178.4448,
        "meta_arg_of_pericenter": 93.52,
        "meta_mean_anomaly": 28.9131,
        "meta_ephemeris_type": 0,
        "meta_classification_type": "U",
        "meta_norad_cat_id": 30342,
        "meta_element_set_no": 999,
        "meta_rev_at_epoch": 95045,
        "meta_bstar": 0.00057263386,
        "meta_mean_motion_dot": 6.12e-06,
        "meta_mean_motion_ddot": 0,
        "tle_line1": "1 30342U 99025ABD 25358.08759983  .00000612  00000+0  57263-3 0  9993",
        "tle_line2": "2 30342 100.1958 178.4448 0168267  93.5200  28.9131 13.80059503950454"
      },
      "geometry": {
        "type": "Point",
        "coordinates": [
          159.00118442330668,
          62.65833507929972
        ]
      }
    },
    {
      "type": "Feature",
      "properties": {
        "norad_id": 30344,
        "name": "FENGYUN 1C DEB",
        "group": "fengyun-1c-debris",
        "lat": 61.32460776516926,
        "lon": 65.11724473011671,
        "alt_km": 708.7703507537226,
        "timestamp": "2025-12-24T22:42:22.306972+00:00",
        "meta_object_name": "FENGYUN 1C DEB",
        "meta_object_id": "1999-025ABF",
        "meta_epoch": "2025-12-24T04:29:37.421088",
        "meta_mean_motion": 14.51954258,
        "meta_eccentricity": 0.00068708,
        "meta_inclination": 98.8195,
        "meta_ra_of_asc_node": 80.8125,
        "meta_arg_of_pericenter": 88.9196,
        "meta_mean_anomaly": 329.4909,
        "meta_ephemeris_type": 0,
        "meta_classification_type": "U",
        "meta_norad_cat_id": 30344,
        "meta_element_set_no": 999,
        "meta_rev_at_epoch": 98243,
        "meta_bstar": 0.002583119,
        "meta_mean_motion_dot": 0.00010394,
        "meta_mean_motion_ddot": 0,
        "tle_line1": "1 30344U 99025ABF 25358.18723867  .00010394  00000+0  25831-2 0  9991",
        "tle_line2": "2 30344  98.8195  80.8125 0006870  88.9196 329.4909 14.51954258982438"
      },
      "geometry": {
        "type": "Point",
        "coordinates": [
          65.11724473011671,
          61.32460776516926
        ]
      }
    },
    {
      "type": "Feature",
      "properties": {
        "norad_id": 30345,
        "name": "FENGYUN 1C DEB",
        "group": "fengyun-1c-debris",
        "lat": 23.881256175929483,
        "lon": 54.86873846366593,
        "alt_km": 764.7980698820866,
        "timestamp": "2025-12-24T22:42:22.306983+00:00",
        "meta_object_name": "FENGYUN 1C DEB",
        "meta_object_id": "1999-025ABG",
        "meta_epoch": "2025-12-24T02:36:27.026496",
        "meta_mean_motion": 14.41797526,
        "meta_eccentricity": 0.00180797,
        "meta_inclination": 98.9199,
        "meta_ra_of_asc_node": 57.9817,
        "meta_arg_of_pericenter": 210.545,
        "meta_mean_anomaly": 149.4686,
        "meta_ephemeris_type": 0,
        "meta_classification_type": "U",
        "meta_norad_cat_id": 30345,
        "meta_element_set_no": 999,
        "meta_rev_at_epoch": 97937,
        "meta_bstar": 0.0020425791,
        "meta_mean_motion_dot": 6.644e-05,
        "meta_mean_motion_ddot": 0,
        "tle_line1": "1 30345U 99025ABG 25358.10864614  .00006644  00000+0  20426-2 0  9998",
        "tle_line2": "2 30345  98.9199  57.9817 0018079 210.5450 149.4686 14.41797526979370"
      },
      "geometry": {
        "type": "Point",
        "coordinates": [
          54.86873846366593,
          23.881256175929483
        ]
      }
    },
    {
      "type": "Feature",
      "properties": {
        "norad_id": 30346,
        "name": "FENGYUN 1C DEB",
        "group": "fengyun-1c-debris",
        "lat": 63.36538842069515,
        "lon": -66.11737121685877,
        "alt_km": 796.2843015028102,
        "timestamp": "2025-12-24T22:42:22.306993+00:00",
        "meta_object_name": "FENGYUN 1C DEB",
        "meta_object_id": "1999-025ABH",
        "meta_epoch": "2025-12-23T06:14:04.439040",
        "meta_mean_motion": 14.33992657,
        "meta_eccentricity": 0.00550558,
        "meta_inclination": 98.808,
        "meta_ra_of_asc_node": 94.1569,
        "meta_arg_of_pericenter": 352.1142,
        "meta_mean_anomaly": 62.0751,
        "meta_ephemeris_type": 0,
        "meta_classification_type": "U",
        "meta_norad_cat_id": 30346,
        "meta_element_set_no": 999,
        "meta_rev_at_epoch": 97564,
        "meta_bstar": 0.0018850196,
        "meta_mean_motion_dot": 5.309e-05,
        "meta_mean_motion_ddot": 0,
        "tle_line1": "1 30346U 99025ABH 25357.25977360  .00005309  00000+0  18850-2 0  9992",
        "tle_line2": "2 30346  98.8080  94.1569 0055055 352.1142  62.0751 14.33992657975644"
      },
      "geometry": {
        "type": "Point",
        "coordinates": [
          -66.11737121685877,
          63.36538842069515
        ]
      }
    },
    {
      "type": "Feature",
      "properties": {
        "norad_id": 30347,
        "name": "FENGYUN 1C DEB",
        "group": "fengyun-1c-debris",
        "lat": 40.06904666425428,
        "lon": 8.791089936858981,
        "alt_km": 998.3198177286113,
        "timestamp": "2025-12-24T22:42:22.307003+00:00",
        "meta_object_name": "FENGYUN 1C DEB",
        "meta_object_id": "1999-025ABJ",
        "meta_epoch": "2025-12-24T00:14:25.385856",
        "meta_mean_motion": 13.92773723,
        "meta_eccentricity": 0.01501007,
        "meta_inclination": 98.3767,
        "meta_ra_of_asc_node": 180.8242,
        "meta_arg_of_pericenter": 2.4525,
        "meta_mean_anomaly": 124.8809,
        "meta_ephemeris_type": 0,
        "meta_classification_type": "U",
        "meta_norad_cat_id": 30347,
        "meta_element_set_no": 999,
        "meta_rev_at_epoch": 96117,
        "meta_bstar": 0.0001168796,
        "meta_mean_motion_dot": 1.28e-06,
        "meta_mean_motion_ddot": 0,
        "tle_line1": "1 30347U 99025ABJ 25358.01001604  .00000128  00000+0  11688-3 0  9994",
        "tle_line2": "2 30347  98.3767 180.8242 0150100   2.4525 124.8809 13.92773723961179"
      },
      "geometry": {
        "type": "Point",
        "coordinates": [
          8.791089936858981,
          40.06904666425428
        ]
      }
    },
    {
      "type": "Feature",
      "properties": {
        "norad_id": 30348,
        "name": "FENGYUN 1C DEB",
        "group": "fengyun-1c-debris",
        "lat": 75.87545311373647,
        "lon": -47.6590331256804,
        "alt_km": 773.9997583207696,
        "timestamp": "2025-12-24T22:42:22.307014+00:00",
        "meta_object_name": "FENGYUN 1C DEB",
        "meta_object_id": "1999-025ABK",
        "meta_epoch": "2025-12-23T12:49:27.897024",
        "meta_mean_motion": 14.35206312,
        "meta_eccentricity": 0.00172006,
        "meta_inclination": 98.8618,
        "meta_ra_of_asc_node": 92.5766,
        "meta_arg_of_pericenter": 341.0657,
        "meta_mean_anomaly": 29.799,
        "meta_ephemeris_type": 0,
        "meta_classification_type": "U",
        "meta_norad_cat_id": 30348,
        "meta_element_set_no": 999,
        "meta_rev_at_epoch": 97689,
        "meta_bstar": 0.0018641706,
        "meta_mean_motion_dot": 5.297e-05,
        "meta_mean_motion_ddot": 0,
        "tle_line1": "1 30348U 99025ABK 25357.53435066  .00005297  00000+0  18642-2 0  9992",
        "tle_line2": "2 30348  98.8618  92.5766 0017200 341.0657  29.7990 14.35206312976893"
      },
      "geometry": {
        "type": "Point",
        "coordinates": [
          -47.6590331256804,
          75.87545311373647
        ]
      }
    },
    {
      "type": "Feature",
      "properties": {
        "norad_id": 30349,
        "name": "FENGYUN 1C DEB",
        "group": "fengyun-1c-debris",
        "lat": 72.93217277131419,
        "lon": 170.33287366519514,
        "alt_km": 886.484779376221,
        "timestamp": "2025-12-24T22:42:22.307024+00:00",
        "meta_object_name": "FENGYUN 1C DEB",
        "meta_object_id": "1999-025ABL",
        "meta_epoch": "2025-12-22T19:21:09.760608",
        "meta_mean_motion": 14.11176648,
        "meta_eccentricity": 0.00889878,
        "meta_inclination": 98.5858,
        "meta_ra_of_asc_node": 318.81,
        "meta_arg_of_pericenter": 344.0509,
        "meta_mean_anomaly": 55.6208,
        "meta_ephemeris_type": 0,
        "meta_classification_type": "U",
        "meta_norad_cat_id": 30349,
        "meta_element_set_no": 999,
        "meta_rev_at_epoch": 96373,
        "meta_bstar": 0.0018613995,
        "meta_mean_motion_dot": 3.441e-05,
        "meta_mean_motion_ddot": 0,
        "tle_line1": "1 30349U 99025ABL 25356.80636297  .00003441  00000+0  18614-2 0  9999",
        "tle_line2": "2 30349  98.5858 318.8100 0088987 344.0509  55.6208 14.11176648963733"
      },
      "geometry": {
        "type": "Point",
        "coordinates": [
          170.33287366519514,
          72.93217277131419
        ]
      }
    }
  ]
}